{"version": 0.6, "generator": "Overpass API 0.7.62.1 084b4234", "osm3s": {"timestamp_osm_base": "2024-04-08T11:10:10Z", "copyright": "The data included in this document is from www.openstreetmap.org. The data is made available under ODbL."}, "elements": [{"type": "node", "id": 16875152, "lat": 46.868803, "lon": -70.882275}, {"type": "node", "id": 16875153, "lat": 46.8697903, "lon": -70.8784478}, {"type": "node", "id": 16875155, "lat": 46.8702921, "lon": -70.874222}, {"type": "node", "id": 16875156, "lat": 46.870336, "lon": -70.8689469}, {"type": "node", "id": 16875157, "lat": 46.8702884, "lon": -70.8542918}, {"type": "node", "id": 16875159, "lat": 46.8702694, "lon": -70.8410978}, {"type": "node", "id": 16875160, "lat": 46.8702364, "lon": -70.8316961}, {"type": "node", "id": 17052228, "lat": 46.870594, "lon": -70.8319044, "tags": {"created_by": "JOSM"}}, {"type": "node", "id": 17052229, "lat": 46.8705993, "lon": -70.841104}, {"type": "node", "id": 17052233, "lat": 46.8706747, "lon": -70.875743}, {"type": "node", "id": 17052235, "lat": 46.8701071, "lon": -70.8803493}, {"type": "node", "id": 17052237, "lat": 46.8691365, "lon": -70.8828949}, {"type": "node", "id": 495600742, "lat": 46.8705735, "lon": -70.8284905}, {"type": "node", "id": 495619436, "lat": 46.866482, "lon": -70.887859}, {"type": "node", "id": 495619629, "lat": 46.8667387, "lon": -70.8880969}, {"type": "node", "id": 495624617, "lat": 46.8702179, "lon": -70.8284835}, {"type": "node", "id": 495628293, "lat": 46.8702925, "lon": -70.8646647}, {"type": "node", "id": 495628305, "lat": 46.8706217, "lon": -70.8637123}, {"type": "node", "id": 495628392, "lat": 46.8706309, "lon": -70.8565862}, {"type": "node", "id": 495628407, "lat": 46.8706303, "lon": -70.8561072}, {"type": "node", "id": 495628451, "lat": 46.8702832, "lon": -70.8638131}, {"type": "node", "id": 495628527, "lat": 46.8703012, "lon": -70.8567932}, {"type": "node", "id": 495628545, "lat": 46.8702956, "lon": -70.8563119}, {"type": "node", "id": 495628636, "lat": 46.8706282, "lon": -70.8645623}, {"type": "node", "id": 3638112295, "lat": 46.8697311, "lon": -70.8815}, {"type": "node", "id": 3638112296, "lat": 46.8704001, "lon": -70.8790356}, {"type": "node", "id": 3638112297, "lat": 46.8705932, "lon": -70.8777757}, {"type": "node", "id": 3638112298, "lat": 46.870665, "lon": -70.876683}, {"type": "node", "id": 4584192693, "lat": 46.868319, "lon": -70.8837058}, {"type": "node", "id": 4584192694, "lat": 46.86917, "lon": -70.8811462}, {"type": "node", "id": 4584192695, "lat": 46.8694677, "lon": -70.8799798}, {"type": "node", "id": 4584192696, "lat": 46.86997, "lon": -70.877298}, {"type": "node", "id": 4584192697, "lat": 46.8701964, "lon": -70.8755879}, {"type": "node", "id": 4584192698, "lat": 46.8703303, "lon": -70.8726991}, {"type": "node", "id": 4584192699, "lat": 46.8703323, "lon": -70.8680823}, {"type": "node", "id": 4584192702, "lat": 46.8706435, "lon": -70.8664935}, {"type": "node", "id": 4584192703, "lat": 46.870325, "lon": -70.8663818}, {"type": "node", "id": 4584192706, "lat": 46.8706483, "lon": -70.8679333}, {"type": "node", "id": 4584192707, "lat": 46.8706107, "lon": -70.8619965}, {"type": "node", "id": 4584192710, "lat": 46.8702906, "lon": -70.8604051}, {"type": "node", "id": 4584192711, "lat": 46.8702896, "lon": -70.8619091}, {"type": "node", "id": 4584192715, "lat": 46.8706183, "lon": -70.8603937}, {"type": "node", "id": 4584192716, "lat": 46.8706358, "lon": -70.8549877}, {"type": "node", "id": 4584192717, "lat": 46.8702894, "lon": -70.8549976}, {"type": "node", "id": 4584192718, "lat": 46.87063, "lon": -70.8465711}, {"type": "node", "id": 4584192719, "lat": 46.8702852, "lon": -70.8455472}, {"type": "node", "id": 4584192720, "lat": 46.8705978, "lon": -70.8384537}, {"type": "node", "id": 4584192721, "lat": 46.8705977, "lon": -70.8382323}, {"type": "node", "id": 4584192722, "lat": 46.8702488, "lon": -70.8384437}, {"type": "node", "id": 4584192723, "lat": 46.8702477, "lon": -70.8381982}, {"type": "node", "id": 4584192724, "lat": 46.8702271, "lon": -70.8240143}, {"type": "node", "id": 4584192726, "lat": 46.8705549, "lon": -70.8239223}, {"type": "node", "id": 5880884443, "lat": 46.8705775, "lon": -70.8291605}, {"type": "node", "id": 5880884444, "lat": 46.8702193, "lon": -70.8278087}, {"type": "node", "id": 5880884445, "lat": 46.8705716, "lon": -70.8280152}, {"type": "node", "id": 5880884447, "lat": 46.8702229, "lon": -70.829351}, {"type": "node", "id": 5880968439, "lat": 46.8671037, "lon": -70.8873051}, {"type": "node", "id": 5880968440, "lat": 46.8668502, "lon": -70.8870266}, {"type": "node", "id": 5880968443, "lat": 46.8706353, "lon": -70.8542915}, {"type": "node", "id": 5880968444, "lat": 46.8706358, "lon": -70.8556621}, {"type": "node", "id": 5880968445, "lat": 46.870292, "lon": -70.8556768}, {"type": "node", "id": 5880968446, "lat": 46.8706, "lon": -70.8397955}, {"type": "node", "id": 5880968447, "lat": 46.8702571, "lon": -70.8397794}, {"type": "node", "id": 5880968448, "lat": 46.8706019, "lon": -70.8425555}, {"type": "node", "id": 5880968449, "lat": 46.8702681, "lon": -70.8426869}, {"type": "way", "id": 40779055, "nodes": [495628407, 495628392], "tags": {"NHS": "yes", "bridge": "yes", "highway": "motorway", "is_in": "Qu\u00e9bec,Canada", "lanes": "2", "layer": "1", "maxspeed": "100", "minspeed": "60", "name": "Autoroute Jean-Lesage", "nat_name:en": "TransCanada Highway", "nat_name:fr": "Route Transcanadienne", "note": "P01024N", "oneway": "yes", "ref": "20", "source": "Geobase_Import_2009"}}, {"type": "way", "id": 40779065, "nodes": [495628293, 495628451], "tags": {"NHS": "yes", "bridge": "yes", "highway": "motorway", "is_in": "Qu\u00e9bec,Canada", "lanes": "2", "layer": "1", "maxspeed": "100", "minspeed": "60", "name": "Autoroute Jean-Lesage", "nat_name:en": "TransCanada Highway", "nat_name:fr": "Route Transcanadienne", "oneway": "yes", "ref": "20", "source": "Geobase_Import_2009"}}, {"type": "way", "id": 40779072, "nodes": [495628305, 495628636], "tags": {"NHS": "yes", "bridge": "yes", "highway": "motorway", "is_in": "Qu\u00e9bec,Canada", "lanes": "2", "layer": "1", "maxspeed": "100", "minspeed": "60", "name": "Autoroute Jean-Lesage", "nat_name:en": "TransCanada Highway", "nat_name:fr": "Route Transcanadienne", "oneway": "yes", "ref": "20", "source": "Geobase_Import_2009"}}, {"type": "way", "id": 40779092, "nodes": [495628527, 495628545], "tags": {"NHS": "yes", "bridge": "yes", "highway": "motorway", "is_in": "Qu\u00e9bec,Canada", "lanes": "2", "layer": "1", "maxspeed": "100", "minspeed": "60", "name": "Autoroute Jean-Lesage", "nat_name:en": "TransCanada Highway", "nat_name:fr": "Route Transcanadienne", "note": "P01024S", "oneway": "yes", "ref": "20", "source": "Geobase_Import_2009"}}, {"type": "way", "id": 40781518, "nodes": [495628392, 4584192715, 4584192707, 495628305], "tags": {"NHS": "yes", "highway": "motorway", "lanes": "2", "maxspeed": "100", "minspeed": "60", "name": "Autoroute Jean-Lesage", "oneway": "yes", "ref": "20", "surface": "paved"}}, {"type": "way", "id": 40781520, "nodes": [495628451, 4584192711, 4584192710, 495628527], "tags": {"NHS": "yes", "highway": "motorway", "lanes": "2", "maxspeed": "100", "minspeed": "60", "name": "Autoroute Jean-Lesage", "oneway": "yes", "ref": "20", "surface": "paved"}}, {"type": "way", "id": 40781521, "nodes": [16875157, 4584192719, 5880968449], "tags": {"NHS": "yes", "highway": "motorway", "lanes": "2", "maxspeed": "100", "minspeed": "60", "name": "Autoroute Jean-Lesage", "oneway": "yes", "ref": "20", "surface": "asphalt"}}, {"type": "way", "id": 463108724, "nodes": [4584192721, 4584192720], "tags": {"NHS": "yes", "bridge": "yes", "highway": "motorway", "lanes": "2", "layer": "1", "maxspeed": "100", "minspeed": "60", "name": "Autoroute Jean-Lesage", "oneway": "yes", "ref": "20", "surface": "asphalt"}}, {"type": "way", "id": 463108725, "nodes": [5880968448, 4584192718, 5880968443], "tags": {"NHS": "yes", "highway": "motorway", "lanes": "2", "maxspeed": "100", "minspeed": "60", "name": "Autoroute Jean-Lesage", "oneway": "yes", "ref": "20", "surface": "asphalt"}}, {"type": "way", "id": 463108726, "nodes": [4584192723, 16875160, 5880884447, 495624617, 5880884444, 4584192724], "tags": {"NHS": "yes", "highway": "motorway", "lanes": "2", "maxspeed": "100", "minspeed": "60", "name": "Autoroute Jean-Lesage", "oneway": "yes", "ref": "20", "surface": "asphalt"}}, {"type": "way", "id": 463108727, "nodes": [4584192722, 4584192723], "tags": {"NHS": "yes", "bridge": "yes", "highway": "motorway", "lanes": "2", "layer": "1", "maxspeed": "100", "minspeed": "60", "name": "Autoroute Jean-Lesage", "oneway": "yes", "ref": "20", "surface": "asphalt"}}, {"type": "way", "id": 463108731, "nodes": [4584192726, 5880884445, 495600742, 5880884443, 17052228, 4584192721], "tags": {"NHS": "yes", "highway": "motorway", "lanes": "2", "maxspeed": "100", "minspeed": "60", "name": "Autoroute Jean-Lesage", "oneway": "yes", "ref": "20", "surface": "asphalt"}}, {"type": "way", "id": 622650959, "nodes": [5880968443, 4584192716], "tags": {"NHS": "yes", "highway": "motorway", "lanes": "2", "maxspeed": "100", "minspeed": "60", "name": "Autoroute Jean-Lesage", "oneway": "yes", "ref": "20", "surface": "asphalt"}}, {"type": "way", "id": 622650960, "nodes": [4584192717, 16875157], "tags": {"NHS": "yes", "highway": "motorway", "lanes": "2", "maxspeed": "100", "minspeed": "60", "name": "Autoroute Jean-Lesage", "oneway": "yes", "ref": "20", "surface": "asphalt"}}, {"type": "way", "id": 622650961, "nodes": [5880968444, 495628407], "tags": {"NHS": "yes", "highway": "motorway", "lanes": "2", "maxspeed": "100", "minspeed": "60", "name": "Autoroute Jean-Lesage", "oneway": "yes", "ref": "20", "surface": "asphalt"}}, {"type": "way", "id": 622650962, "nodes": [4584192716, 5880968444], "tags": {"NHS": "yes", "highway": "motorway", "lanes": "2", "maxspeed": "100", "minspeed": "60", "name": "Autoroute Jean-Lesage", "oneway": "yes", "ref": "20", "surface": "asphalt"}}, {"type": "way", "id": 622650963, "nodes": [5880968445, 4584192717], "tags": {"NHS": "yes", "highway": "motorway", "lanes": "2", "maxspeed": "100", "minspeed": "60", "name": "Autoroute Jean-Lesage", "oneway": "yes", "ref": "20", "surface": "asphalt"}}, {"type": "way", "id": 622650964, "nodes": [495628545, 5880968445], "tags": {"NHS": "yes", "highway": "motorway", "lanes": "2", "maxspeed": "100", "minspeed": "60", "name": "Autoroute Jean-Lesage", "oneway": "yes", "ref": "20", "surface": "asphalt"}}, {"type": "way", "id": 622650965, "nodes": [5880968446, 17052229], "tags": {"NHS": "yes", "highway": "motorway", "lanes": "2", "maxspeed": "100", "minspeed": "60", "name": "Autoroute Jean-Lesage", "oneway": "yes", "ref": "20", "surface": "asphalt"}}, {"type": "way", "id": 622650966, "nodes": [5880968447, 4584192722], "tags": {"NHS": "yes", "highway": "motorway", "lanes": "2", "maxspeed": "100", "minspeed": "60", "name": "Autoroute Jean-Lesage", "oneway": "yes", "ref": "20", "surface": "asphalt"}}, {"type": "way", "id": 622650967, "nodes": [17052229, 5880968448], "tags": {"NHS": "yes", "highway": "motorway", "lanes": "2", "maxspeed": "100", "minspeed": "60", "name": "Autoroute Jean-Lesage", "oneway": "yes", "ref": "20", "surface": "asphalt"}}, {"type": "way", "id": 622650968, "nodes": [4584192720, 5880968446], "tags": {"NHS": "yes", "highway": "motorway", "lanes": "2", "maxspeed": "100", "minspeed": "60", "name": "Autoroute Jean-Lesage", "oneway": "yes", "ref": "20", "surface": "asphalt"}}, {"type": "way", "id": 622650969, "nodes": [16875159, 5880968447], "tags": {"NHS": "yes", "highway": "motorway", "lanes": "2", "maxspeed": "100", "minspeed": "60", "name": "Autoroute Jean-Lesage", "oneway": "yes", "ref": "20", "surface": "asphalt"}}, {"type": "way", "id": 622650970, "nodes": [5880968449, 16875159], "tags": {"NHS": "yes", "highway": "motorway", "lanes": "2", "maxspeed": "100", "minspeed": "60", "name": "Autoroute Jean-Lesage", "oneway": "yes", "ref": "20", "surface": "asphalt"}}, {"type": "way", "id": 928276782, "nodes": [495619436, 5880968440, 4584192693, 16875152, 4584192694, 4584192695, 16875153, 4584192696, 4584192697, 16875155, 4584192698, 16875156, 4584192699, 4584192703, 495628293], "tags": {"NHS": "yes", "highway": "motorway", "lanes": "2", "maxspeed": "100", "minspeed": "60", "name": "Autoroute Jean-Lesage", "note": "P09029", "oneway": "yes", "ref": "20", "surface": "asphalt"}}, {"type": "way", "id": 928276783, "nodes": [495628636, 4584192702, 4584192706, 17052233, 3638112298, 3638112297, 3638112296, 17052235, 3638112295, 17052237, 5880968439, 495619629], "tags": {"NHS": "yes", "highway": "motorway", "lanes": "2", "maxspeed": "100", "minspeed": "60", "name": "Autoroute Jean-Lesage", "note": "P09029", "oneway": "yes", "ref": "20", "surface": "asphalt"}}]}